[{"OBJECT_NAME":"JACKAL X-1L-002","OBJECT_ID":"2024-043AN","EPOCH":"2026-03-09T23:11:34.268640","MEAN_MOTION":15.42550186,"ECCENTRICITY":0.00077419,"INCLINATION":97.5416,"RA_OF_ASC_NODE":211.0971,"ARG_OF_PERICENTER":201.4891,"MEAN_ANOMALY":158.6032,"EPHEMERIS_TYPE":0,"CLASSIFICATION_TYPE":"U","NORAD_CAT_ID":59134,"ELEMENT_SET_NO":999,"REV_AT_EPOCH":11230,"BSTAR":0.00054451815,"MEAN_MOTION_DOT":0.00023615,"MEAN_MOTION_DDOT":0},{"OBJECT_NAME":"COSMOS 1470","OBJECT_ID":"1983-061A","EPOCH":"2026-03-09T13:55:35.320224","MEAN_MOTION":15.44026386,"ECCENTRICITY":0.0007403,"INCLINATION":82.467,"RA_OF_ASC_NODE":117.3166,"ARG_OF_PERICENTER":18.2038,"MEAN_ANOMALY":341.9473,"EPHEMERIS_TYPE":0,"CLASSIFICATION_TYPE":"U","NORAD_CAT_ID":14147,"ELEMENT_SET_NO":999,"REV_AT_EPOCH":8771,"BSTAR":0.00038655,"MEAN_MOTION_DOT":0.00017696,"MEAN_MOTION_DDOT":0}]
